{
  "type": "FeatureCollection",
  "features": [
    {
      "type": "Feature",
      "properties": {
        "norad_id": 66675,
        "name": "TRANSPORTER-15 K",
        "group": "last-30-days",
        "lat": 78.20576813374518,
        "lon": 28.702750918062584,
        "alt_km": 511.10411687074065,
        "timestamp": "2025-12-21T20:41:06.756430+00:00",
        "meta_object_name": "TRANSPORTER-15 K",
        "meta_object_id": "2025-276K",
        "meta_epoch": "2025-12-21T10:49:53.124384",
        "meta_mean_motion": 15.16978011,
        "meta_eccentricity": 0.00049979,
        "meta_inclination": 97.4394,
        "meta_ra_of_asc_node": 67.0396,
        "meta_arg_of_pericenter": 265.0814,
        "meta_mean_anomaly": 94.9849,
        "meta_ephemeris_type": 0,
        "meta_classification_type": "U",
        "meta_norad_cat_id": 66675,
        "meta_element_set_no": 999,
        "meta_rev_at_epoch": 344,
        "meta_bstar": 0.00047273134,
        "meta_mean_motion_dot": 9.276e-05,
        "meta_mean_motion_ddot": 0,
        "tle_line1": "1 66675U 25276K   25355.45130931  .00009276  00000+0  47273-3 0  9997",
        "tle_line2": "2 66675  97.4394  67.0396 0004997 265.0814  94.9849 15.16978011  3447"
      },
      "geometry": {
        "type": "Point",
        "coordinates": [
          28.702750918062584,
          78.20576813374518
        ]
      }
    },
    {
      "type": "Feature",
      "properties": {
        "norad_id": 66676,
        "name": "TRANSPORTER-15 L",
        "group": "last-30-days",
        "lat": 70.75333060776042,
        "lon": 45.461638365742374,
        "alt_km": 512.0072615400468,
        "timestamp": "2025-12-21T20:41:06.756440+00:00",
        "meta_object_name": "TRANSPORTER-15 L",
        "meta_object_id": "2025-276L",
        "meta_epoch": "2025-12-21T10:52:04.823904",
        "meta_mean_motion": 15.16775553,
        "meta_eccentricity": 0.0004783,
        "meta_inclination": 97.4394,
        "meta_ra_of_asc_node": 67.0379,
        "meta_arg_of_pericenter": 263.2221,
        "meta_mean_anomaly": 96.8469,
        "meta_ephemeris_type": 0,
        "meta_classification_type": "U",
        "meta_norad_cat_id": 66676,
        "meta_element_set_no": 999,
        "meta_rev_at_epoch": 344,
        "meta_bstar": 0.00036566431,
        "meta_mean_motion_dot": 7.117e-05,
        "meta_mean_motion_ddot": 0,
        "tle_line1": "1 66676U 25276L   25355.45283361  .00007117  00000+0  36566-3 0  9999",
        "tle_line2": "2 66676  97.4394  67.0379 0004783 263.2221  96.8469 15.16775553  3449"
      },
      "geometry": {
        "type": "Point",
        "coordinates": [
          45.461638365742374,
          70.75333060776042
        ]
      }
    },
    {
      "type": "Feature",
      "properties": {
        "norad_id": 66677,
        "name": "TRANSPORTER-15 M",
        "group": "last-30-days",
        "lat": 66.40400297739195,
        "lon": -95.1415005227678,
        "alt_km": 509.55141375118455,
        "timestamp": "2025-12-21T20:41:06.756451+00:00",
        "meta_object_name": "TRANSPORTER-15 M",
        "meta_object_id": "2025-276M",
        "meta_epoch": "2025-12-21T10:41:44.082240",
        "meta_mean_motion": 15.17434681,
        "meta_eccentricity": 0.00038385,
        "meta_inclination": 97.4389,
        "meta_ra_of_asc_node": 67.0448,
        "meta_arg_of_pericenter": 270.5853,
        "meta_mean_anomaly": 89.494,
        "meta_ephemeris_type": 0,
        "meta_classification_type": "U",
        "meta_norad_cat_id": 66677,
        "meta_element_set_no": 999,
        "meta_rev_at_epoch": 344,
        "meta_bstar": 0.00055445905,
        "meta_mean_motion_dot": 0.00011036,
        "meta_mean_motion_ddot": 0,
        "tle_line1": "1 66677U 25276M   25355.44564910  .00011036  00000+0  55446-3 0  9994",
        "tle_line2": "2 66677  97.4389  67.0448 0003838 270.5853  89.4940 15.17434681  3440"
      },
      "geometry": {
        "type": "Point",
        "coordinates": [
          -95.1415005227678,
          66.40400297739195
        ]
      }
    },
    {
      "type": "Feature",
      "properties": {
        "norad_id": 66678,
        "name": "TRANSPORTER-15 N",
        "group": "last-30-days",
        "lat": 73.75721784643083,
        "lon": 40.788740102630804,
        "alt_km": 511.71077373671505,
        "timestamp": "2025-12-21T20:41:06.756461+00:00",
        "meta_object_name": "TRANSPORTER-15 N",
        "meta_object_id": "2025-276N",
        "meta_epoch": "2025-12-21T12:26:13.184160",
        "meta_mean_motion": 15.16833494,
        "meta_eccentricity": 0.00048548,
        "meta_inclination": 97.4427,
        "meta_ra_of_asc_node": 67.1124,
        "meta_arg_of_pericenter": 255.3791,
        "meta_mean_anomaly": 104.6904,
        "meta_ephemeris_type": 0,
        "meta_classification_type": "U",
        "meta_norad_cat_id": 66678,
        "meta_element_set_no": 999,
        "meta_rev_at_epoch": 345,
        "meta_bstar": 0.00038656781,
        "meta_mean_motion_dot": 7.54e-05,
        "meta_mean_motion_ddot": 0,
        "tle_line1": "1 66678U 25276N   25355.51820815  .00007540  00000+0  38657-3 0  9992",
        "tle_line2": "2 66678  97.4427  67.1124 0004854 255.3791 104.6904 15.16833494  3452"
      },
      "geometry": {
        "type": "Point",
        "coordinates": [
          40.788740102630804,
          73.75721784643083
        ]
      }
    },
    {
      "type": "Feature",
      "properties": {
        "norad_id": 66679,
        "name": "TRANSPORTER-15 P",
        "group": "last-30-days",
        "lat": 70.55168118301835,
        "lon": 45.71107545419921,
        "alt_km": 507.35445965572944,
        "timestamp": "2025-12-21T20:41:06.756470+00:00",
        "meta_object_name": "TRANSPORTER-15 P",
        "meta_object_id": "2025-276P",
        "meta_epoch": "2025-12-21T10:52:32.598048",
        "meta_mean_motion": 15.17590497,
        "meta_eccentricity": 0.00037983,
        "meta_inclination": 97.4397,
        "meta_ra_of_asc_node": 67.0293,
        "meta_arg_of_pericenter": 283.1797,
        "meta_mean_anomaly": 76.9013,
        "meta_ephemeris_type": 0,
        "meta_classification_type": "U",
        "meta_norad_cat_id": 66679,
        "meta_element_set_no": 999,
        "meta_rev_at_epoch": 344,
        "meta_bstar": 0.026256086,
        "meta_mean_motion_dot": 0.0056315,
        "meta_mean_motion_ddot": 0,
        "tle_line1": "1 66679U 25276P   25355.45315507  .00563150  00000+0  26256-1 0  9997",
        "tle_line2": "2 66679  97.4397  67.0293 0003798 283.1797  76.9013 15.17590497  3441"
      },
      "geometry": {
        "type": "Point",
        "coordinates": [
          45.71107545419921,
          70.55168118301835
        ]
      }
    },
    {
      "type": "Feature",
      "properties": {
        "norad_id": 66680,
        "name": "TRANSPORTER-15 Q",
        "group": "last-30-days",
        "lat": 74.7290572779162,
        "lon": 38.843095626265466,
        "alt_km": 511.5705824801598,
        "timestamp": "2025-12-21T20:41:06.756479+00:00",
        "meta_object_name": "TRANSPORTER-15 Q",
        "meta_object_id": "2025-276Q",
        "meta_epoch": "2025-12-21T10:50:55.487040",
        "meta_mean_motion": 15.16811066,
        "meta_eccentricity": 0.00046661,
        "meta_inclination": 97.4419,
        "meta_ra_of_asc_node": 67.045,
        "meta_arg_of_pericenter": 252.6205,
        "meta_mean_anomaly": 107.4519,
        "meta_ephemeris_type": 0,
        "meta_classification_type": "U",
        "meta_norad_cat_id": 66680,
        "meta_element_set_no": 999,
        "meta_rev_at_epoch": 344,
        "meta_bstar": 0.00037013738,
        "meta_mean_motion_dot": 7.212e-05,
        "meta_mean_motion_ddot": 0,
        "tle_line1": "1 66680U 25276Q   25355.45203110  .00007212  00000+0  37014-3 0  9993",
        "tle_line2": "2 66680  97.4419  67.0450 0004666 252.6205 107.4519 15.16811066  3441"
      },
      "geometry": {
        "type": "Point",
        "coordinates": [
          38.843095626265466,
          74.7290572779162
        ]
      }
    },
    {
      "type": "Feature",
      "properties": {
        "norad_id": 66681,
        "name": "TRANSPORTER-15 R",
        "group": "last-30-days",
        "lat": 75.8135563293866,
        "lon": -81.46403275682488,
        "alt_km": 509.93791925103324,
        "timestamp": "2025-12-21T20:41:06.756489+00:00",
        "meta_object_name": "TRANSPORTER-15 R",
        "meta_object_id": "2025-276R",
        "meta_epoch": "2025-12-21T10:44:26.322432",
        "meta_mean_motion": 15.17383686,
        "meta_eccentricity": 0.00049127,
        "meta_inclination": 97.434,
        "meta_ra_of_asc_node": 67.0297,
        "meta_arg_of_pericenter": 281.5127,
        "meta_mean_anomaly": 78.5555,
        "meta_ephemeris_type": 0,
        "meta_classification_type": "U",
        "meta_norad_cat_id": 66681,
        "meta_element_set_no": 999,
        "meta_rev_at_epoch": 344,
        "meta_bstar": 0.00065592155,
        "meta_mean_motion_dot": 0.00013053,
        "meta_mean_motion_ddot": 0,
        "tle_line1": "1 66681U 25276R   25355.44752688  .00013053  00000+0  65592-3 0  9994",
        "tle_line2": "2 66681  97.4340  67.0297 0004912 281.5127  78.5555 15.17383686  3443"
      },
      "geometry": {
        "type": "Point",
        "coordinates": [
          -81.46403275682488,
          75.8135563293866
        ]
      }
    }
  ]
}